CORVUS BC4              
1 43767U 18099K   26068.65923737  .00005714  00000+0  33980-3 0  9990
2 43767  97.4206 114.5457 0008046 356.5821   3.5354 15.11615710397368
STARLINK-4058           
1 53266U 22086AA  26068.66178883 -.00000529  00000+0 -15118-4 0  9996
2 53266  53.2184 194.2474 0001451 103.2698 256.8456 15.08841150201066
